{
  "norad_id": 66195,
  "name": "STARLINK-34813",
  "history": [
    {
      "epoch": "2026-03-28T11:52:07.355712",
      "apogee_km": 475.87258404940894,
      "perigee_km": 474.58360314260517,
      "latitude_deg": -21.199464278570595,
      "longitude_deg": 126.97483967989683,
      "semi_major_axis_km": 6853.365093596007,
      "eccentricity": 9.404e-05,
      "inclination_deg": 53.1587,
      "raan_deg": 157.8513,
      "arg_perigee_deg": 93.6261,
      "mean_anomaly_deg": 266.4847,
      "mean_motion_rev_day": 15.30195638
    }
  ]
}