{"fetched_at":"2026-03-29T02:12:04Z","count":15717,"tles":[{"name":"STARLINK-34813","line1":"1 66195U 25243U   26087.49452958  .00015405  00000+0  53124-3 0  9994","line2":"2 66195  53.1587 157.8513 0000940  93.6261 266.4847 15.30195638 23539","category":"Starlink"}]}